ONEWEB-0560             
1 55145U 23004F   25325.55250726 -.00000301  00000+0 -79563-3 0  9996
2 55145  87.9196  16.7153 0002114  94.4342 265.7031 13.18685711142348
ONEWEB-0565             
1 55146U 23004G   25325.54590961  .00000069  00000+0  14321-3 0  9994
2 55146  87.9185  16.7641 0001825  82.1119 278.0220 13.18684231142335
ONEWEB-0567             
1 55147U 23004H   25325.15992971  .00000105  00000+0  23470-3 0  9995
2 55147  87.9197  16.8061 0002011  86.8121 273.3241 13.18684714142289
ONEWEB-0569             
1 55148U 23004J   25325.57653907 -.00000008  00000+0 -57599-4 0  9999
2 55148  87.9008   1.4724 0002568  80.8183 279.3236 13.13469023142926
ONEWEB-0570             
1 55149U 23004K   25325.22592490 -.00000002  00000+0 -36653-4 0  9993
2 55149  87.9197  16.7931 0001355  88.7442 271.3846 13.18686787142284
ONEWEB-0571             
1 55150U 23004L   25325.21932749  .00000051  00000+0  96087-4 0  9998
2 55150  87.9190  16.7949 0002358  66.9401 293.1980 13.18686227142296
ONEWEB-0572             
1 55151U 23004M   25325.30235037  .00000095  00000+0  21075-3 0  9997
2 55151  87.9142  47.2059 0001717  95.7361 264.3967 13.17647017140104
ONEWEB-0573             
1 55152U 23004N   25325.59208928  .00000016  00000+0  86082-5 0  9992
2 55152  87.9189  16.7273 0001663  70.8017 289.3295 13.18689011142336
